[{"OBJECT_NAME":"JIAOTONG 5 (HEAD-2H)","OBJECT_ID":"2022-167K","EPOCH":"2026-03-09T23:22:06.822048","MEAN_MOTION":15.70872056,"ECCENTRICITY":0.00036843,"INCLINATION":97.6162,"RA_OF_ASC_NODE":251.2696,"ARG_OF_PERICENTER":321.7019,"MEAN_ANOMALY":38.3981,"EPHEMERIS_TYPE":0,"CLASSIFICATION_TYPE":"U","NORAD_CAT_ID":54691,"ELEMENT_SET_NO":999,"REV_AT_EPOCH":18142,"BSTAR":0.0011277683,"MEAN_MOTION_DOT":0.00142368,"MEAN_MOTION_DDOT":0},{"OBJECT_NAME":"STARLINK-11377 [DTC]","OBJECT_ID":"2024-213F","EPOCH":"2026-03-09T05:23:02.849856","MEAN_MOTION":15.69798435,"ECCENTRICITY":0.00012046,"INCLINATION":53.1574,"RA_OF_ASC_NODE":43.4465,"ARG_OF_PERICENTER":94.3811,"MEAN_ANOMALY":265.7345,"EPHEMERIS_TYPE":0,"CLASSIFICATION_TYPE":"U","NORAD_CAT_ID":62013,"ELEMENT_SET_NO":999,"REV_AT_EPOCH":7484,"BSTAR":0.0016359008,"MEAN_MOTION_DOT":0.00203273,"MEAN_MOTION_DDOT":0}]
